{
  "type": "FeatureCollection",
  "features": [
    {
      "type": "Feature",
      "properties": {
        "norad_id": 31307,
        "name": "GALAXY 17 (G-17)",
        "group": "intelsat",
        "lat": 1.3714161531836448,
        "lon": -131.62854243158048,
        "alt_km": 35760.60528325932,
        "timestamp": "2025-12-08T15:42:49.446118+00:00",
        "meta_object_name": "GALAXY 17 (G-17)",
        "meta_object_id": "2007-016B",
        "meta_epoch": "2025-12-08T06:09:03.889728",
        "meta_mean_motion": 1.00272715,
        "meta_eccentricity": 0.00061425,
        "meta_inclination": 2.4885,
        "meta_ra_of_asc_node": 82.334,
        "meta_arg_of_pericenter": 161.2511,
        "meta_mean_anomaly": 200.9468,
        "meta_ephemeris_type": 0,
        "meta_classification_type": "U",
        "meta_norad_cat_id": 31307,
        "meta_element_set_no": 999,
        "meta_rev_at_epoch": 6789,
        "meta_bstar": 0,
        "meta_mean_motion_dot": -2.04e-06,
        "meta_mean_motion_ddot": 0,
        "tle_line1": "1 31307U 07016B   25342.25629502 -.00000204  00000+0  00000+0 0  9990",
        "tle_line2": "2 31307   2.4885  82.3340 0006142 161.2511 200.9468  1.00272715 67897"
      },
      "geometry": {
        "type": "Point",
        "coordinates": [
          -131.62854243158048,
          1.3714161531836448
        ]
      }
    },
    {
      "type": "Feature",
      "properties": {
        "norad_id": 31862,
        "name": "DIRECTV 10",
        "group": "intelsat",
        "lat": 0.007523717366682359,
        "lon": -149.43765989034858,
        "alt_km": 35786.76267693407,
        "timestamp": "2025-12-08T15:42:49.446130+00:00",
        "meta_object_name": "DIRECTV 10",
        "meta_object_id": "2007-032A",
        "meta_epoch": "2025-12-08T01:07:46.754688",
        "meta_mean_motion": 1.00267088,
        "meta_eccentricity": 2.741e-05,
        "meta_inclination": 0.0014,
        "meta_ra_of_asc_node": 208.4476,
        "meta_arg_of_pericenter": 58.5252,
        "meta_mean_anomaly": 84.2468,
        "meta_ephemeris_type": 0,
        "meta_classification_type": "U",
        "meta_norad_cat_id": 31862,
        "meta_element_set_no": 999,
        "meta_rev_at_epoch": 4367,
        "meta_bstar": 0,
        "meta_mean_motion_dot": -1e-06,
        "meta_mean_motion_ddot": 0,
        "tle_line1": "1 31862U 07032A   25342.04706892 -.00000100  00000+0  00000+0 0  9994",
        "tle_line2": "2 31862   0.0014 208.4476 0000274  58.5252  84.2468  1.00267088 43672"
      },
      "geometry": {
        "type": "Point",
        "coordinates": [
          -149.43765989034858,
          0.007523717366682359
        ]
      }
    },
    {
      "type": "Feature",
      "properties": {
        "norad_id": 32253,
        "name": "INTELSAT 11 (IS-11)",
        "group": "intelsat",
        "lat": 2.749052132082286,
        "lon": -163.01094629970564,
        "alt_km": 36106.33432483208,
        "timestamp": "2025-12-08T15:42:49.446142+00:00",
        "meta_object_name": "INTELSAT 11 (IS-11)",
        "meta_object_id": "2007-044B",
        "meta_epoch": "2025-12-08T05:52:34.775616",
        "meta_mean_motion": 0.9904751,
        "meta_eccentricity": 0.00091782,
        "meta_inclination": 3.0683,
        "meta_ra_of_asc_node": 81.0242,
        "meta_arg_of_pericenter": 164.0141,
        "meta_mean_anomaly": 165.8382,
        "meta_ephemeris_type": 0,
        "meta_classification_type": "U",
        "meta_norad_cat_id": 32253,
        "meta_element_set_no": 999,
        "meta_rev_at_epoch": 6655,
        "meta_bstar": 0,
        "meta_mean_motion_dot": 6.5e-07,
        "meta_mean_motion_ddot": 0,
        "tle_line1": "1 32253U 07044B   25342.24484694  .00000065  00000+0  00000+0 0  9996",
        "tle_line2": "2 32253   3.0683  81.0242 0009178 164.0141 165.8382  0.99047510 66556"
      },
      "geometry": {
        "type": "Point",
        "coordinates": [
          -163.01094629970564,
          2.749052132082286
        ]
      }
    },
    {
      "type": "Feature",
      "properties": {
        "norad_id": 32388,
        "name": "HORIZONS-2",
        "group": "intelsat",
        "lat": 0.8180892326127184,
        "lon": -120.43183193126684,
        "alt_km": 35767.605576516355,
        "timestamp": "2025-12-08T15:42:49.446153+00:00",
        "meta_object_name": "HORIZONS-2",
        "meta_object_id": "2007-063B",
        "meta_epoch": "2025-12-08T06:15:42.572160",
        "meta_mean_motion": 1.0027076,
        "meta_eccentricity": 0.00050619,
        "meta_inclination": 2.1097,
        "meta_ra_of_asc_node": 83.0066,
        "meta_arg_of_pericenter": 185.9005,
        "meta_mean_anomaly": 188.5113,
        "meta_ephemeris_type": 0,
        "meta_classification_type": "U",
        "meta_norad_cat_id": 32388,
        "meta_element_set_no": 999,
        "meta_rev_at_epoch": 6590,
        "meta_bstar": 0,
        "meta_mean_motion_dot": -2.51e-06,
        "meta_mean_motion_ddot": 0,
        "tle_line1": "1 32388U 07063B   25342.26090940 -.00000251  00000+0  00000+0 0  9993",
        "tle_line2": "2 32388   2.1097  83.0066 0005061 185.9005 188.5113  1.00270760 65908"
      },
      "geometry": {
        "type": "Point",
        "coordinates": [
          -120.43183193126684,
          0.8180892326127184
        ]
      }
    },
    {
      "type": "Feature",
      "properties": {
        "norad_id": 32729,
        "name": "DIRECTV 11",
        "group": "intelsat",
        "lat": -0.013635511597870848,
        "lon": -145.84123481253118,
        "alt_km": 35785.79477509936,
        "timestamp": "2025-12-08T15:42:49.446165+00:00",
        "meta_object_name": "DIRECTV 11",
        "meta_object_id": "2008-013A",
        "meta_epoch": "2025-12-08T06:01:18.291360",
        "meta_mean_motion": 1.00269109,
        "meta_eccentricity": 2.506e-05,
        "meta_inclination": 0.006,
        "meta_ra_of_asc_node": 275.0978,
        "meta_arg_of_pericenter": 294.6796,
        "meta_mean_anomaly": 218.6118,
        "meta_ephemeris_type": 0,
        "meta_classification_type": "U",
        "meta_norad_cat_id": 32729,
        "meta_element_set_no": 999,
        "meta_rev_at_epoch": 4367,
        "meta_bstar": 0,
        "meta_mean_motion_dot": -1.23e-06,
        "meta_mean_motion_ddot": 0,
        "tle_line1": "1 32729U 08013A   25342.25090615 -.00000123  00000+0  00000+0 0  9994",
        "tle_line2": "2 32729   0.0060 275.0978 0000250 294.6796 218.6118  1.00269109 43674"
      },
      "geometry": {
        "type": "Point",
        "coordinates": [
          -145.84123481253118,
          -0.013635511597870848
        ]
      }
    },
    {
      "type": "Feature",
      "properties": {
        "norad_id": 32951,
        "name": "GALAXY 18 (G-18)",
        "group": "intelsat",
        "lat": 0.008877129630593904,
        "lon": -169.6936634418858,
        "alt_km": 35782.05244335831,
        "timestamp": "2025-12-08T15:42:49.446177+00:00",
        "meta_object_name": "GALAXY 18 (G-18)",
        "meta_object_id": "2008-024A",
        "meta_epoch": "2025-12-08T04:26:38.789088",
        "meta_mean_motion": 1.00270153,
        "meta_eccentricity": 0.00032868,
        "meta_inclination": 0.0243,
        "meta_ra_of_asc_node": 63.9184,
        "meta_arg_of_pericenter": 197.7349,
        "meta_mean_anomaly": 119.1888,
        "meta_ephemeris_type": 0,
        "meta_classification_type": "U",
        "meta_norad_cat_id": 32951,
        "meta_element_set_no": 999,
        "meta_rev_at_epoch": 4393,
        "meta_bstar": 0,
        "meta_mean_motion_dot": 2.8e-07,
        "meta_mean_motion_ddot": 0,
        "tle_line1": "1 32951U 08024A   25342.18517117  .00000028  00000+0  00000+0 0  9999",
        "tle_line2": "2 32951   0.0243  63.9184 0003286 197.7349 119.1888  1.00270153 43935"
      },
      "geometry": {
        "type": "Point",
        "coordinates": [
          -169.6936634418858,
          0.008877129630593904
        ]
      }
    },
    {
      "type": "Feature",
      "properties": {
        "norad_id": 33153,
        "name": "INTELSAT 25 (IS-25)",
        "group": "intelsat",
        "lat": -0.7490638610561439,
        "lon": -78.12805504857494,
        "alt_km": 35764.481897821446,
        "timestamp": "2025-12-08T15:42:49.446188+00:00",
        "meta_object_name": "INTELSAT 25 (IS-25)",
        "meta_object_id": "2008-034A",
        "meta_epoch": "2025-12-08T06:36:22.781088",
        "meta_mean_motion": 1.00270471,
        "meta_eccentricity": 0.00054284,
        "meta_inclination": 2.216,
        "meta_ra_of_asc_node": 82.6954,
        "meta_arg_of_pericenter": 183.2356,
        "meta_mean_anomaly": 238.9548,
        "meta_ephemeris_type": 0,
        "meta_classification_type": "U",
        "meta_norad_cat_id": 33153,
        "meta_element_set_no": 999,
        "meta_rev_at_epoch": 6378,
        "meta_bstar": 0,
        "meta_mean_motion_dot": -2.22e-06,
        "meta_mean_motion_ddot": 0,
        "tle_line1": "1 33153U 08034A   25342.27526367 -.00000222  00000+0  00000+0 0  9999",
        "tle_line2": "2 33153   2.2160  82.6954 0005428 183.2356 238.9548  1.00270471 63784"
      },
      "geometry": {
        "type": "Point",
        "coordinates": [
          -78.12805504857494,
          -0.7490638610561439
        ]
      }
    }
  ]
}